STARLINK-31654          
1 59858U 24098A   25067.75943438  .00000575  00000+0  21034-4 0  9991
2 59858  43.0007 190.4857 0001333 274.0437  86.0267 15.40694251 45805
STARLINK-31442          
1 59859U 24098B   25067.72793112  .00000622  00000+0  22156-4 0  9990
2 59859  43.0024 189.3548 0001218 268.7313  91.3403 15.40697745 45828
STARLINK-31651          
1 59860U 24098C   25067.74375258 -.00001108  00000+0 -19241-4 0  9994
2 59860  43.0075 190.3668 0003153 290.5333  69.5185 15.40700862 45814
STARLINK-31584          
1 59862U 24098E   25067.36373016  .00002323  00000+0  62844-4 0  9999
2 59862  43.0027 192.6717 0001913 271.9846  88.0791 15.40704300 44940
STARLINK-31950          
1 59863U 24098F   25067.73703212  .00002598  00000+0  69453-4 0  9993
2 59863  42.9983 190.3066 0001304 179.1712 180.9147 15.40695295 45813
STARLINK-31931          
1 59864U 24098G   25067.71911503  .00002934  00000+0  77533-4 0  9998
2 59864  43.0040 190.1734 0001668 277.9156  82.1511 15.40680534 45810
STARLINK-31938          
1 59865U 24098H   25067.70567465  .00000441  00000+0  17827-4 0  9993
2 59865  43.0044 190.0716 0001676 272.5182  87.5483 15.40685334 45813
STARLINK-31941          
1 59866U 24098J   25067.60247045  .00000778  00000+0  23138-4 0  9997
2 59866  43.0060 169.8970 0002716 269.0318  91.0229 15.44437550 45408
STARLINK-31952          
1 59867U 24098K   25067.73254605  .00002951  00000+0  77923-4 0  9998
2 59867  43.0060 190.2785 0001928 278.4811  81.5827 15.40686687 45813
STARLINK-31921          
1 59868U 24098L   25067.24003972  .00002536  00000+0  67961-4 0  9994
2 59868  43.0069 159.6294 0002026 292.0366  68.0276 15.40697112 46111
STARLINK-31760          
1 59869U 24098M   25067.72358890  .00001342  00000+0  39398-4 0  9997
2 59869  43.0056 190.2103 0001703 268.0932  91.9729 15.40691468 45813
STARLINK-31945          
1 59870U 24098N   25067.36821311  .00003895  00000+0  10046-3 0  9995
2 59870  43.0038 192.7054 0001946 268.6747  91.3887 15.40702436 45756
STARLINK-31937          
1 59871U 24098P   25067.69009959  .00004597  00000+0  11716-3 0  9993
2 59871  43.0060 190.8197 0001991 282.3126  77.7508 15.40723896 45800
STARLINK-31940          
1 59873U 24098R   25067.42633146 -.00000343  00000+0 -94057-6 0  9996
2 59873  43.0030 192.2815 0001192 270.6841  89.3879 15.40699344 45764
STARLINK-31933          
1 59874U 24098S   25067.74822811  .00000936  00000+0  29694-4 0  9990
2 59874  43.0083 190.4006 0002722 282.4231  77.6321 15.40696492 45818
STARLINK-31936          
1 59875U 24098T   25068.15862542  .00001160  00000+0  51685-4 0  9997
2 59875  43.0013 149.9835 0001918 271.6886  88.3746 15.27578529 45661
STARLINK-31935          
1 59876U 24098U   25067.66099600 -.00007221  00000+0 -16561-3 0  9999
2 59876  43.0040 190.5988 0002414 276.8003  83.2579 15.40724074 45800
STARLINK-31934          
1 59877U 24098V   25067.32789399  .00008264  00000+0  20516-3 0  9995
2 59877  43.0049 192.3948 0001799 273.7309  86.3342 15.40658949 45759
STARLINK-31943          
1 59878U 24098W   25067.40616071  .00001955  00000+0  54056-4 0  9998
2 59878  43.0031 192.1246 0001609 264.1008  95.9665 15.40696286 45110
STARLINK-31926          
1 59879U 24098X   25067.91668981  .00027160  00000+0  99287-3 0  9992
2 59879  42.9989 173.1804 0001352 291.7231  28.9027 15.27579857  5752
STARLINK-31919          
1 59880U 24098Y   25067.73928081 -.00002915  00000+0 -62582-4 0  9996
2 59880  43.0015 190.3263 0001134 257.4124 102.6606 15.40689011 45817
STARLINK-31974          
1 59885U 24100A   25067.25738979  .00000115  00000+0  10015-4 0  9999
2 59885  43.0078  37.5960 0001600 277.6155  82.4520 15.40704050 44981
STARLINK-31975          
1 59886U 24100B   25067.31774334  .00001592  00000+0  45389-4 0  9994
2 59886  43.0036  37.1888 0001233 265.6583  94.4133 15.40691060 45097
STARLINK-31976          
1 59887U 24100C   25067.93467812  .00000297  00000+0  20334-4 0  9997
2 59887  43.0026  34.9122 0000704 267.2616  92.8155 15.27561688 45161
STARLINK-31965          
1 59888U 24100D   25067.31101779  .00001360  00000+0  39812-4 0  9990
2 59888  43.0059  37.1350 0001938 267.7327  92.3308 15.40699910 44990
STARLINK-31969          
1 59889U 24100E   25067.29994757  .00003574  00000+0  92794-4 0  9991
2 59889  43.0070  37.9223 0001875 253.9269 106.1381 15.40699358 45085
STARLINK-31951          
1 59890U 24100F   25067.98170860  .00000505  00000+0  19357-4 0  9995
2 59890  43.0060  33.5725 0001594 268.1711  91.8962 15.40700945 45094
STARLINK-31949          
1 59891U 24100G   25067.00030259  .00004095  00000+0  10522-3 0  9998
2 59891  43.0067  39.1047 0002073 282.0825  77.9799 15.40708583 44947
STARLINK-31977          
1 59892U 24100H   25067.93256061  .00000762  00000+0  25488-4 0  9997
2 59892  43.0060  34.0678 0001048 279.3336  80.7402 15.40703549 45189
STARLINK-31963          
1 59893U 24100J   25067.31326064  .00002513  00000+0  67430-4 0  9990
2 59893  43.0062  37.1507 0001441 254.7553 105.3144 15.40689439 45090
STARLINK-31961          
1 59894U 24100K   25067.27531771  .00000509  00000+0  19463-4 0  9995
2 59894  43.0044  37.7347 0001338 265.4642  94.6062 15.40695108 45068
STARLINK-31964          
1 59895U 24100L   25067.98618753  .00000453  00000+0  18097-4 0  9990
2 59895  43.0011  33.6051 0001062 277.5656  82.5080 15.40704276 45134
STARLINK-31905          
1 59896U 24100M   25067.22168899  .00000652  00000+0  22887-4 0  9992
2 59896  43.0080  38.1932 0001009 280.7824  79.2919 15.40691079 45076
STARLINK-31928          
1 59897U 24100N   25068.01741650  .00001777  00000+0  49802-4 0  9998
2 59897  43.0025  32.9788 0000879 274.0300  86.0456 15.40693994 45098
STARLINK-31953          
1 59898U 24100P   25068.06895911 -.00004704  00000+0 -10552-3 0  9998
2 59898  43.0076  33.3703 0001916 257.0320 103.0323 15.40667451 45185
STARLINK-31942          
1 59899U 24100Q   25068.10915798 -.00001340  00000+0 -24847-4 0  9996
2 59899  43.0046  32.8073 0001468 281.2965  78.7727 15.40664408 45201
STARLINK-31676          
1 59900U 24100R   25067.31550396  .00001211  00000+0  36257-4 0  9993
2 59900  43.0059  37.1647 0001574 250.0241 110.0446 15.40686912 44988
STARLINK-31908          
1 59901U 24100S   25067.93031799 -.00000174  00000+0  30893-5 0  9992
2 59901  43.0020  34.0458 0000913 267.2537  92.8215 15.40706844 45188
STARLINK-31914          
1 59902U 24100T   25067.30878296 -.00000064  00000+0  57379-5 0  9991
2 59902  43.0063  37.1141 0001326 260.5254  99.5453 15.40696532 44987
STARLINK-31850          
1 59903U 24100U   25067.98395342  .00000402  00000+0  16911-4 0  9993
2 59903  43.0071  33.5880 0001927 270.7136  89.3500 15.40689191 45137
STARLINK-31924          
1 59904U 24100V   25067.39152467  .00002824  00000+0  74841-4 0  9994
2 59904  43.0060  36.8803 0001299 258.9963 101.0747 15.40697488 45093
STARLINK-31898          
1 59905U 24100W   25068.07118076 -.00002948  00000+0 -63317-4 0  9994
2 59905  43.0048  33.3849 0001262 249.4598 110.6124 15.40703980 45192
STARLINK-31861          
1 59906U 24100X   25068.07271789 -.00000291  00000+0  43730-6 0  9993
2 59906  43.0001  31.6455 0001521 259.1457 100.9229 15.42731102 45115
STARLINK-31920          
1 59907U 24100Y   25068.16668981 -.00721067  00000+0 -47225-2 0  9999
2 59907  42.9933   6.7995 0013545 193.1732 197.0960 15.76589344 45409
STARLINK-31872          
1 59922U 24106A   25067.84438945 -.00032174  00000+0 -77266-3 0  9994
2 59922  43.0050 239.3067 0002515 279.6324  80.4248 15.40443853 44604
STARLINK-31972          
1 59923U 24106B   25067.54277434  .00001580  00000+0  45088-4 0  9999
2 59923  43.0036 241.3424 0001457 270.6641  89.4048 15.40693368 44566
STARLINK-31958          
1 59924U 24106C   25067.76190292 -.00001253  00000+0 -22750-4 0  9990
2 59924  43.0009 240.4142 0000921 268.2963  91.7788 15.40699326 44555
STARLINK-31959          
1 59925U 24106D   25068.00002315 -.00178067  00000+0 -65880-2 0  9994
2 59925  42.9980 233.9051 0001912 277.6790 269.4978 15.27727143 44651
STARLINK-31957          
1 59926U 24106E   25067.75966729 -.00002385  00000+0 -49820-4 0  9991
2 59926  43.0023 240.3928 0002011 273.7913  86.2713 15.40704486 44586
STARLINK-31968          
1 59927U 24106F   25067.75518449  .00001120  00000+0  34069-4 0  9997
2 59927  43.0023 240.3605 0001605 272.1657  87.9016 15.40695981 44601
STARLINK-31970          
1 59928U 24106G   25067.93398232  .00000445  00000+0  17904-4 0  9992
2 59928  43.0002 239.1219 0001525 275.1519  84.9163 15.40704452 44623
STARLINK-31932          
1 59929U 24106H   25067.48374397  .00097917  00000+0  23181-2 0  9991
2 59929  42.9976 238.1932 0005500 303.7336  56.2996 15.40730416 44541
STARLINK-31956          
1 59930U 24106J   25067.80880616  .00007152  00000+0  17839-3 0  9991
2 59930  43.0029 239.8990 0002298 265.4616  94.5978 15.40685877 44558
STARLINK-31960          
1 59931U 24106K   25067.75294302  .00000260  00000+0  13489-4 0  9998
2 59931  43.0052 240.3441 0001577 268.5983  91.4693 15.40695798 44545
STARLINK-31432          
1 59932U 24106L   25067.91831259  .00247448  00000+0  57093-2 0  9993
2 59932  43.0009 239.0050 0001979 311.0173  49.0513 15.40866352 44568
STARLINK-31853          
1 59933U 24106M   25067.80657069 -.00001255  00000+0 -22774-4 0  9993
2 59933  43.0037 239.8816 0001908 276.6110  83.4529 15.40700812 44553
STARLINK-31971          
1 59934U 24106N   25068.16668981 -.00004505  00000+0 -15033-3 0  9999
2 59934  42.9991 233.6102 0001506 271.0820 171.2109 15.28409592 44492
STARLINK-31962          
1 59936U 24106Q   25067.52448703  .00002607  00000+0  69632-4 0  9992
2 59936  43.0032 241.2000 0001917 279.3449  80.7191 15.40707301 44519
STARLINK-31879          
1 59937U 24106R   25068.16668981 -.01096410  00000+0 -33815-1 0  9995
2 59937  43.0000 237.3678 0001400 272.2556 108.1212 15.35641884 44662
